[{"OBJECT_NAME":"OBJECT Y","OBJECT_ID":"2023-085Y","EPOCH":"2026-03-09T22:38:54.992256","MEAN_MOTION":15.32500153,"ECCENTRICITY":0.00063298,"INCLINATION":97.4849,"RA_OF_ASC_NODE":180.8653,"ARG_OF_PERICENTER":67.4431,"MEAN_ANOMALY":292.748,"EPHEMERIS_TYPE":0,"CLASSIFICATION_TYPE":"U","NORAD_CAT_ID":57026,"ELEMENT_SET_NO":999,"REV_AT_EPOCH":15160,"BSTAR":0.00065512761,"MEAN_MOTION_DOT":0.00020524,"MEAN_MOTION_DDOT":0},{"OBJECT_NAME":"STARLINK-35908","OBJECT_ID":"2025-271Y","EPOCH":"2026-03-09T09:58:13.152000","MEAN_MOTION":15.30194279,"ECCENTRICITY":0.00021252,"INCLINATION":53.1576,"RA_OF_ASC_NODE":141.2786,"ARG_OF_PERICENTER":151.2114,"MEAN_ANOMALY":208.9004,"EPHEMERIS_TYPE":0,"CLASSIFICATION_TYPE":"U","NORAD_CAT_ID":66639,"ELEMENT_SET_NO":999,"REV_AT_EPOCH":1752,"BSTAR":0.0011414468,"MEAN_MOTION_DOT":0.00033595,"MEAN_MOTION_DDOT":0}]
